{"type":"FeatureCollection", "features": [
{"type":"Feature","geometry":{"type":"Point","coordinates":[12.453386545000058,41.903282180000076]},"properties":{"OBJECTID":1,"ADM0NAME":"Vatican (Holy See)","ADM0_A3":"VAT","LATITUDE":41.9000122264,"LONGITUDE":12.4478083889,"name_zh":"梵蒂冈","name":"Vatican (Holy See)"}},
{"type":"Feature","geometry":{"type":"Point","coordinates":[12.441770158000054,43.93609583500006]},"properties":{"OBJECTID":2,"ADM0NAME":"San Marino","ADM0_A3":"SMR","LATITUDE":43.9171500845,"LONGITUDE":12.4666702867,"name_zh":"聖馬力諾","name":"San Marino"}},
{"type":"Feature","geometry":{"type":"Point","coordinates":[9.516669473000036,47.13372377400003]},"properties":{"OBJECTID":3,"ADM0NAME":"Liechtenstein","ADM0_A3":"LIE","LATITUDE":47.1337237743,"LONGITUDE":9.51666947291,"name_zh":"瓦都茲","name":"Liechtenstein"}},
{"type":"Feature","geometry":{"type":"Point","coordinates":[6.13000280600005,49.61166037900006]},"properties":{"OBJECTID":4,"ADM0NAME":"Luxembourg","ADM0_A3":"LUX","LATITUDE":49.6116603791,"LONGITUDE":6.13000280623,"name_zh":"盧森堡","name":"Luxembourg"}},
{"type":"Feature","geometry":{"type":"Point","coordinates":[158.14997432400003,6.916643696000051]},"properties":{"OBJECTID":5,"ADM0NAME":"Federated States of Micronesia","ADM0_A3":"FSM","LATITUDE":6.91664369601,"LONGITUDE":158.149974324,"name_zh":"帕利基尔","name":"Federated States of Micronesia"}},
{"type":"Feature","geometry":{"type":"Point","coordinates":[171.38000017600007,7.103004311000063]},"properties":{"OBJECTID":6,"ADM0NAME":"Marshall Islands","ADM0_A3":"MHL","LATITUDE":7.10300431122,"LONGITUDE":171.380000176,"name_zh":"馬久羅","name":"Marshall Islands"}},
{"type":"Feature","geometry":{"type":"Point","coordinates":[179.2166470940001,-8.516651998999976]},"properties":{"OBJECTID":7,"ADM0NAME":"Tuvalu","ADM0_A3":"TUV","LATITUDE":-8.51665199904,"LONGITUDE":179.216647094,"name_zh":"富纳富提","name":"Tuvalu"}},
{"type":"Feature","geometry":{"type":"Point","coordinates":[134.62654846700002,7.487396173000036]},"properties":{"OBJECTID":8,"ADM0NAME":"Palau","ADM0_A3":"PLW","LATITUDE":7.48739617298,"LONGITUDE":134.626548467,"name_zh":"梅萊凱奧克","name":"Palau"}},
{"type":"Feature","geometry":{"type":"Point","coordinates":[7.406913173000021,43.73964568800005]},"properties":{"OBJECTID":9,"ADM0NAME":"Monaco","ADM0_A3":"MCO","LATITUDE":43.7396456879,"LONGITUDE":7.40691317347,"name_zh":"摩纳哥","name":"Monaco"}},
{"type":"Feature","geometry":{"type":"Point","coordinates":[173.01757082900008,1.3381875060000539]},"properties":{"OBJECTID":10,"ADM0NAME":"Kiribati","ADM0_A3":"KIR","LATITUDE":1.33818750562,"LONGITUDE":173.017570829,"name_zh":"塔拉瓦环礁","name":"Kiribati"}},
{"type":"Feature","geometry":{"type":"Point","coordinates":[43.24024409900005,-11.704157695999982]},"properties":{"OBJECTID":11,"ADM0NAME":"Comoros","ADM0_A3":"COM","LATITUDE":-11.7041576957,"LONGITUDE":43.2402440987,"name_zh":"莫洛尼","name":"Comoros"}},
{"type":"Feature","geometry":{"type":"Point","coordinates":[1.5164859610000576,42.50000144400008]},"properties":{"OBJECTID":12,"ADM0NAME":"Andorra","ADM0_A3":"AND","LATITUDE":42.5000014435,"LONGITUDE":1.51648596051,"name_zh":"安道尔城","name":"Andorra"}},
{"type":"Feature","geometry":{"type":"Point","coordinates":[-61.51703088499994,10.651997090000066]},"properties":{"OBJECTID":13,"ADM0NAME":"Trinidad and Tobago","ADM0_A3":"TTO","LATITUDE":10.6519970896,"LONGITUDE":-61.5170308854,"name_zh":"西班牙港","name":"Trinidad and Tobago"}},
{"type":"Feature","geometry":{"type":"Point","coordinates":[30.058585919000052,-1.9516442099999267]},"properties":{"OBJECTID":14,"ADM0NAME":"Rwanda","ADM0_A3":"RWA","LATITUDE":-1.95359006868,"LONGITUDE":30.0605317777,"name_zh":"吉佳利","name":"Rwanda"}},
{"type":"Feature","geometry":{"type":"Point","coordinates":[31.133334512000033,-26.31665077799994]},"properties":{"OBJECTID":15,"ADM0NAME":"Swaziland","ADM0_A3":"SWZ","LATITUDE":-26.3166507784,"LONGITUDE":31.1333345121,"name_zh":"墨巴本","name":"Swaziland"}},
{"type":"Feature","geometry":{"type":"Point","coordinates":[14.514969033000057,46.05528830900005]},"properties":{"OBJECTID":16,"ADM0NAME":"Slovenia","ADM0_A3":"SVN","LATITUDE":46.0552883088,"LONGITUDE":14.5149690335,"name_zh":"卢布尔雅那","name":"Slovenia"}},
{"type":"Feature","geometry":{"type":"Point","coordinates":[17.116980752000075,48.15001833000008]},"properties":{"OBJECTID":17,"ADM0NAME":"Slovakia","ADM0_A3":"SVK","LATITUDE":48.15001833,"LONGITUDE":17.1169807522,"name_zh":"布拉迪斯拉发","name":"Slovakia"}},
{"type":"Feature","geometry":{"type":"Point","coordinates":[51.53296789400008,25.286556009000037]},"properties":{"OBJECTID":18,"ADM0NAME":"Qatar","ADM0_A3":"QAT","LATITUDE":25.2865560089,"LONGITUDE":51.5329678943,"name_zh":"多哈","name":"Qatar"}},
{"type":"Feature","geometry":{"type":"Point","coordinates":[19.266306924000048,42.465972513000054]},"properties":{"OBJECTID":19,"ADM0NAME":"Montenegro","ADM0_A3":"MNE","LATITUDE":42.4659725129,"LONGITUDE":19.2663069241,"name_zh":"波德戈里察","name":"Montenegro"}},
{"type":"Feature","geometry":{"type":"Point","coordinates":[7.46697546200005,46.916682759000025]},"properties":{"OBJECTID":20,"ADM0NAME":"Switzerland","ADM0_A3":"CHE","LATITUDE":46.9166827587,"LONGITUDE":7.46697546248,"name_zh":"伯尔尼","name":"Switzerland"}},
{"type":"Feature","geometry":{"type":"Point","coordinates":[21.165984252000044,42.66670961400007]},"properties":{"OBJECTID":21,"ADM0NAME":"Kosovo","ADM0_A3":"KOS","LATITUDE":42.6667096141,"LONGITUDE":21.1659842516,"name_zh":"普里什蒂纳","name":"Kosovo"}},
{"type":"Feature","geometry":{"type":"Point","coordinates":[-61.38701298199999,15.301015644000074]},"properties":{"OBJECTID":22,"ADM0NAME":"Dominica","ADM0_A3":"DMA","LATITUDE":15.3010156443,"LONGITUDE":-61.3870129818,"name_zh":"羅索","name":"Dominican Republic"}},
{"type":"Feature","geometry":{"type":"Point","coordinates":[43.148001667000074,11.59501446400003]},"properties":{"OBJECTID":23,"ADM0NAME":"Djibouti","ADM0_A3":"DJI","LATITUDE":11.5950144643,"LONGITUDE":43.1480016671,"name_zh":"吉布地","name":"Djibouti"}},
{"type":"Feature","geometry":{"type":"Point","coordinates":[-16.591701488999945,13.45387646000006]},"properties":{"OBJECTID":24,"ADM0NAME":"The Gambia","ADM0_A3":"GMB","LATITUDE":13.4538764603,"LONGITUDE":-16.5917014892,"name_zh":"班竹","name":"The Gambia"}},
{"type":"Feature","geometry":{"type":"Point","coordinates":[21.43346146500005,42.00000612300005]},"properties":{"OBJECTID":25,"ADM0NAME":"Macedonia","ADM0_A3":"MKD","LATITUDE":42.0000061229,"LONGITUDE":21.4334614651,"name_zh":"斯科普里","name":"North Macedonia"}},
{"type":"Feature","geometry":{"type":"Point","coordinates":[-59.61652673499998,13.102002583000058]},"properties":{"OBJECTID":26,"ADM0NAME":"Barbados","ADM0_A3":"BRB","LATITUDE":13.1020025828,"LONGITUDE":-59.6165267351,"name_zh":"布里奇敦","name":"Barbados"}},
{"type":"Feature","geometry":{"type":"Point","coordinates":[29.360006062000025,-3.376087219999931]},"properties":{"OBJECTID":27,"ADM0NAME":"Burundi","ADM0_A3":"BDI","LATITUDE":-3.37608722037,"LONGITUDE":29.3600060615,"name_zh":"布琼布拉","name":"Burundi"}},
{"type":"Feature","geometry":{"type":"Point","coordinates":[-61.21206241999994,13.148278828000059]},"properties":{"OBJECTID":28,"ADM0NAME":"Saint Vincent and the Grenadines","ADM0_A3":"VCT","LATITUDE":13.1482788279,"LONGITUDE":-61.2120624203,"name_zh":"金斯敦","name":"Saint Vincent and the Grenadines"}},
{"type":"Feature","geometry":{"type":"Point","coordinates":[-61.00000817999995,14.001973489000022]},"properties":{"OBJECTID":29,"ADM0NAME":"Saint Lucia","ADM0_A3":"LCA","LATITUDE":14.0019734893,"LONGITUDE":-61.0000081804,"name_zh":"卡斯特里","name":"Saint Lucia"}},
{"type":"Feature","geometry":{"type":"Point","coordinates":[-62.71700931999993,17.302030455000022]},"properties":{"OBJECTID":30,"ADM0NAME":"Saint Kitts and Nevis","ADM0_A3":"KNA","LATITUDE":17.3020304555,"LONGITUDE":-62.7170093197,"name_zh":"巴斯特尔","name":"Saint Kitts and Nevis"}},
{"type":"Feature","geometry":{"type":"Point","coordinates":[57.49999385500007,-20.166638570999964]},"properties":{"OBJECTID":31,"ADM0NAME":"Mauritius","ADM0_A3":"MUS","LATITUDE":-20.1666385714,"LONGITUDE":57.4999938546,"name_zh":"路易港","name":"Mauritius"}},
{"type":"Feature","geometry":{"type":"Point","coordinates":[-61.74164322599995,12.052633402000026]},"properties":{"OBJECTID":32,"ADM0NAME":"Grenada","ADM0_A3":"GRD","LATITUDE":12.0526334017,"LONGITUDE":-61.7416432261,"name_zh":"圣乔治","name":"Grenada"}},
{"type":"Feature","geometry":{"type":"Point","coordinates":[50.58305171600006,26.236136290000047]},"properties":{"OBJECTID":33,"ADM0NAME":"Bahrain","ADM0_A3":"BHR","LATITUDE":26.2361362905,"LONGITUDE":50.5830517159,"name_zh":"麦纳麦","name":"Bahrain"}},
{"type":"Feature","geometry":{"type":"Point","coordinates":[-61.85003381499996,17.118036518000054]},"properties":{"OBJECTID":34,"ADM0NAME":"Antigua and Barbuda","ADM0_A3":"ATG","LATITUDE":17.1180365183,"LONGITUDE":-61.8500338151,"name_zh":"聖約翰","name":"Antigua and Barbuda"}},
{"type":"Feature","geometry":{"type":"Point","coordinates":[-56.17299814699999,-34.85609570799994]},"properties":{"OBJECTID":35,"ADM0NAME":"Uruguay","ADM0_A3":"URY","LATITUDE":-34.8580415662,"LONGITUDE":-56.1710522884,"name_zh":"蒙得维的亚","name":"Uruguay"}},
{"type":"Feature","geometry":{"type":"Point","coordinates":[1.2208112610000512,6.133882930000027]},"properties":{"OBJECTID":36,"ADM0NAME":"Togo","ADM0_A3":"TGO","LATITUDE":6.13193707166,"LONGITUDE":1.22275711936,"name_zh":"洛美","name":"Togo"}},
{"type":"Feature","geometry":{"type":"Point","coordinates":[10.179678099000057,36.80277813600003]},"properties":{"OBJECTID":37,"ADM0NAME":"Tunisia","ADM0_A3":"TUN","LATITUDE":36.8027781362,"LONGITUDE":10.1796780992,"name_zh":"突尼斯","name":"Tunisia"}},
{"type":"Feature","geometry":{"type":"Point","coordinates":[54.366593383000065,24.466683572000022]},"properties":{"OBJECTID":38,"ADM0NAME":"United Arab Emirates","ADM0_A3":"ARE","LATITUDE":24.4666835724,"LONGITUDE":54.3665933826,"name_zh":"阿布扎比","name":"United Arab Emirates"}},
{"type":"Feature","geometry":{"type":"Point","coordinates":[58.38329911200003,37.94999493300003]},"properties":{"OBJECTID":39,"ADM0NAME":"Turkmenistan","ADM0_A3":"TKM","LATITUDE":37.9499949331,"LONGITUDE":58.3832991118,"name_zh":"阿什哈巴德","name":"Turkmenistan"}},
{"type":"Feature","geometry":{"type":"Point","coordinates":[28.28138173600007,-15.414698408999982]},"properties":{"OBJECTID":40,"ADM0NAME":"Zambia","ADM0_A3":"ZMB","LATITUDE":-15.4166442679,"LONGITUDE":28.2833275947,"name_zh":"路沙卡","name":"Zambia"}},
{"type":"Feature","geometry":{"type":"Point","coordinates":[31.04276357200007,-17.815843835999942]},"properties":{"OBJECTID":41,"ADM0NAME":"Zimbabwe","ADM0_A3":"ZWE","LATITUDE":-17.8177896944,"LONGITUDE":31.0447094307,"name_zh":"哈拉雷","name":"Zimbabwe"}},
{"type":"Feature","geometry":{"type":"Point","coordinates":[125.57945593200009,-8.55938840899995]},"properties":{"OBJECTID":42,"ADM0NAME":"East Timor","ADM0_A3":"TLS","LATITUDE":-8.55938840855,"LONGITUDE":125.579455932,"name_zh":"帝力","name":"East Timor"}},
{"type":"Feature","geometry":{"type":"Point","coordinates":[168.31664058400008,-17.733350403999964]},"properties":{"OBJECTID":43,"ADM0NAME":"Vanuatu","ADM0_A3":"VUT","LATITUDE":-17.733350404,"LONGITUDE":168.316640584,"name_zh":"维拉港","name":"Vanuatu"}},
{"type":"Feature","geometry":{"type":"Point","coordinates":[-87.21947519799994,14.103990759000055]},"properties":{"OBJECTID":44,"ADM0NAME":"Honduras","ADM0_A3":"HND","LATITUDE":14.1020449005,"LONGITUDE":-87.2175293393,"name_zh":"德古斯加巴","name":"Honduras"}},
{"type":"Feature","geometry":{"type":"Point","coordinates":[-58.16702864699994,6.801973693000036]},"properties":{"OBJECTID":45,"ADM0NAME":"Guyana","ADM0_A3":"GUY","LATITUDE":6.80197369275,"LONGITUDE":-58.1670286475,"name_zh":"乔治敦","name":"Guyana"}},
{"type":"Feature","geometry":{"type":"Point","coordinates":[-21.950014486999976,64.15002362000007]},"properties":{"OBJECTID":46,"ADM0NAME":"Iceland","ADM0_A3":"ISL","LATITUDE":64.1500236197,"LONGITUDE":-21.9500144872,"name_zh":"雷克雅未克","name":"Iceland"}},
{"type":"Feature","geometry":{"type":"Point","coordinates":[-72.33798044699995,18.542970455000045]},"properties":{"OBJECTID":47,"ADM0NAME":"Haiti","ADM0_A3":"HTI","LATITUDE":18.5410245961,"LONGITUDE":-72.3360345883,"name_zh":"太子港","name":"Haiti"}},
{"type":"Feature","geometry":{"type":"Point","coordinates":[32.58137766700003,0.31860481300003585]},"properties":{"OBJECTID":48,"ADM0NAME":"Uganda","ADM0_A3":"UGA","LATITUDE":0.31665895477,"LONGITUDE":32.5833235257,"name_zh":"坎帕拉","name":"Uganda"}},
{"type":"Feature","geometry":{"type":"Point","coordinates":[-55.167030884999974,5.835030130000064]},"properties":{"OBJECTID":49,"ADM0NAME":"Suriname","ADM0_A3":"SUR","LATITUDE":5.83503012992,"LONGITUDE":-55.1670308854,"name_zh":"帕拉马里博","name":"Suriname"}},
{"type":"Feature","geometry":{"type":"Point","coordinates":[2.114710187000071,13.51865181100004]},"properties":{"OBJECTID":50,"ADM0NAME":"Niger","ADM0_A3":"NER","LATITUDE":13.5167059519,"LONGITUDE":2.11665604514,"name_zh":"尼亞美","name":"Niger"}},
{"type":"Feature","geometry":{"type":"Point","coordinates":[68.77387935300004,38.560035216000074]},"properties":{"OBJECTID":51,"ADM0NAME":"Tajikistan","ADM0_A3":"TJK","LATITUDE":38.5600352163,"LONGITUDE":68.7738793527,"name_zh":"杜尚别","name":"Tajikistan"}},
{"type":"Feature","geometry":{"type":"Point","coordinates":[-57.64345102799996,-25.29445711699998]},"properties":{"OBJECTID":52,"ADM0NAME":"Paraguay","ADM0_A3":"PRY","LATITUDE":-25.2964029757,"LONGITUDE":-57.6415051693,"name_zh":"亞松森","name":"Paraguay"}},
{"type":"Feature","geometry":{"type":"Point","coordinates":[-86.27043751899998,12.15496243900003]},"properties":{"OBJECTID":53,"ADM0NAME":"Nicaragua","ADM0_A3":"NIC","LATITUDE":12.1530165801,"LONGITUDE":-86.2684916603,"name_zh":"馬納瓜","name":"Nicaragua"}},
{"type":"Feature","geometry":{"type":"Point","coordinates":[-13.236161598999956,8.471957271000065]},"properties":{"OBJECTID":54,"ADM0NAME":"Sierra Leone","ADM0_A3":"SLE","LATITUDE":8.47001141249,"LONGITUDE":-13.2342157404,"name_zh":"弗里敦","name":"Sierra Leone"}},
{"type":"Feature","geometry":{"type":"Point","coordinates":[73.16468862100004,33.70194180900006]},"properties":{"OBJECTID":55,"ADM0NAME":"Pakistan","ADM0_A3":"PAK","LATITUDE":33.6999959503,"LONGITUDE":73.1666344797,"name_zh":"伊斯兰堡","name":"Pakistan"}},
{"type":"Feature","geometry":{"type":"Point","coordinates":[85.31469635200006,27.71863777200008]},"properties":{"OBJECTID":56,"ADM0NAME":"Nepal","ADM0_A3":"NPL","LATITUDE":27.7166919139,"LONGITUDE":85.3166422108,"name_zh":"加德滿都","name":"Nepal"}},
{"type":"Feature","geometry":{"type":"Point","coordinates":[28.227483217000042,-25.704974694999976]},"properties":{"OBJECTID":57,"ADM0NAME":"South Africa","ADM0_A3":"ZAF","LATITUDE":-25.7069205538,"LONGITUDE":28.2294290758,"name_zh":"比勒陀利亞","name":"South Africa"}},
{"type":"Feature","geometry":{"type":"Point","coordinates":[147.19250362100001,-9.464707825999938]},"properties":{"OBJECTID":58,"ADM0NAME":"Papua New Guinea","ADM0_A3":"PNG","LATITUDE":-9.46470782587,"LONGITUDE":147.192503621,"name_zh":"莫尔兹比港","name":"Papua New Guinea"}},
{"type":"Feature","geometry":{"type":"Point","coordinates":[159.94976573400004,-9.437994294999953]},"properties":{"OBJECTID":59,"ADM0NAME":"Solomon Islands","ADM0_A3":"SLB","LATITUDE":-9.43799429509,"LONGITUDE":159.949765734,"name_zh":"霍尼亚拉","name":"Solomon Islands"}},
{"type":"Feature","geometry":{"type":"Point","coordinates":[-79.53498300999996,8.969963049000057]},"properties":{"OBJECTID":60,"ADM0NAME":"Panama","ADM0_A3":"PAN","LATITUDE":8.96801719048,"LONGITUDE":-79.5330371518,"name_zh":"巴拿馬城","name":"Panama"}},
{"type":"Feature","geometry":{"type":"Point","coordinates":[-6.836408155999948,34.02530731100006]},"properties":{"OBJECTID":61,"ADM0NAME":"Morocco","ADM0_A3":"MAR","LATITUDE":34.0252990916,"LONGITUDE":-6.83613082013,"name_zh":"拉巴特","name":"Morocco"}},
{"type":"Feature","geometry":{"type":"Point","coordinates":[28.85771114000005,47.00502362000003]},"properties":{"OBJECTID":62,"ADM0NAME":"Moldova","ADM0_A3":"MDA","LATITUDE":47.0050236197,"LONGITUDE":28.8577111397,"name_zh":"基希讷乌","name":"Moldova"}},
{"type":"Feature","geometry":{"type":"Point","coordinates":[32.58721710400005,-25.953331628999933]},"properties":{"OBJECTID":63,"ADM0NAME":"Mozambique","ADM0_A3":"MOZ","LATITUDE":-25.9552774874,"LONGITUDE":32.5891629626,"name_zh":"马普托","name":"Mozambique"}},
{"type":"Feature","geometry":{"type":"Point","coordinates":[45.36473175200007,2.0686271930000544]},"properties":{"OBJECTID":64,"ADM0NAME":"Somalia","ADM0_A3":"SOM","LATITUDE":2.06668133433,"LONGITUDE":45.3666776111,"name_zh":"摩加迪休","name":"Somalia"}},
{"type":"Feature","geometry":{"type":"Point","coordinates":[58.59331213300004,23.613324808000073]},"properties":{"OBJECTID":65,"ADM0NAME":"Oman","ADM0_A3":"OMN","LATITUDE":23.6133248077,"LONGITUDE":58.5933121326,"name_zh":"马斯喀特","name":"Oman"}},
{"type":"Feature","geometry":{"type":"Point","coordinates":[79.85775060900005,6.931965758000047]},"properties":{"OBJECTID":66,"ADM0NAME":"Sri Lanka","ADM0_A3":"LKA","LATITUDE":6.93196575818,"LONGITUDE":79.8577506093,"name_zh":"科伦坡","name":"Sri Lanka"}},
{"type":"Feature","geometry":{"type":"Point","coordinates":[106.91466990400005,47.91861925900008]},"properties":{"OBJECTID":67,"ADM0NAME":"Mongolia","ADM0_A3":"MNG","LATITUDE":47.9166733999,"LONGITUDE":106.916615762,"name_zh":"乌兰巴托","name":"Mongolia"}},
{"type":"Feature","geometry":{"type":"Point","coordinates":[17.083546101000024,-22.570006083999942]},"properties":{"OBJECTID":68,"ADM0NAME":"Namibia","ADM0_A3":"NAM","LATITUDE":-22.5700060844,"LONGITUDE":17.0835461005,"name_zh":"温得和克","name":"Namibia"}},
{"type":"Feature","geometry":{"type":"Point","coordinates":[7.53138214300003,9.085279008000043]},"properties":{"OBJECTID":69,"ADM0NAME":"Nigeria","ADM0_A3":"NGA","LATITUDE":9.08333314914,"LONGITUDE":7.53332800155,"name_zh":"阿布贾","name":"Nigeria"}},
{"type":"Feature","geometry":{"type":"Point","coordinates":[-15.59836084099993,11.865023823000058]},"properties":{"OBJECTID":70,"ADM0NAME":"Guinea Bissau","ADM0_A3":"GNB","LATITUDE":11.865023823,"LONGITUDE":-15.5983608413,"name_zh":"比绍","name":"Guinea Bissau"}},
{"type":"Feature","geometry":{"type":"Point","coordinates":[35.93135406700003,31.95197110600003]},"properties":{"OBJECTID":71,"ADM0NAME":"Jordan","ADM0_A3":"JOR","LATITUDE":31.9500252472,"LONGITUDE":35.9332999255,"name_zh":"安曼","name":"Jordan"}},
{"type":"Feature","geometry":{"type":"Point","coordinates":[25.316635293000047,54.68336631200003]},"properties":{"OBJECTID":72,"ADM0NAME":"Lithuania","ADM0_A3":"LTU","LATITUDE":54.6833663118,"LONGITUDE":25.3166352933,"name_zh":"维尔纽斯","name":"Lithuania"}},
{"type":"Feature","geometry":{"type":"Point","coordinates":[24.099965371000053,56.95002382300004]},"properties":{"OBJECTID":73,"ADM0NAME":"Latvia","ADM0_A3":"LVA","LATITUDE":56.9500238232,"LONGITUDE":24.0999653714,"name_zh":"里加","name":"Latvia"}},
{"type":"Feature","geometry":{"type":"Point","coordinates":[74.58325836400007,42.875025305000065]},"properties":{"OBJECTID":74,"ADM0NAME":"Kyrgyzstan","ADM0_A3":"KGZ","LATITUDE":42.8730794465,"LONGITUDE":74.5852042225,"name_zh":"比什凯克","name":"Kyrgyzstan"}},
{"type":"Feature","geometry":{"type":"Point","coordinates":[27.483273070000052,-29.31667437899995]},"properties":{"OBJECTID":75,"ADM0NAME":"Lesotho","ADM0_A3":"LSO","LATITUDE":-29.3166743787,"LONGITUDE":27.48327307,"name_zh":"马塞卢","name":"Lesotho"}},
{"type":"Feature","geometry":{"type":"Point","coordinates":[47.51467804200007,-18.914691491999974]},"properties":{"OBJECTID":76,"ADM0NAME":"Madagascar","ADM0_A3":"MDG","LATITUDE":-18.9166373506,"LONGITUDE":47.5166239001,"name_zh":"塔那那利佛","name":"Madagascar"}},
{"type":"Feature","geometry":{"type":"Point","coordinates":[-78.50199696699997,-0.2130423219999784]},"properties":{"OBJECTID":77,"ADM0NAME":"Ecuador","ADM0_A3":"ECU","LATITUDE":-0.21498818065,"LONGITUDE":-78.5000511085,"name_zh":"基多","name":"Ecuador"}},
{"type":"Feature","geometry":{"type":"Point","coordinates":[-84.08599721099995,9.936958288000028]},"properties":{"OBJECTID":78,"ADM0NAME":"Costa Rica","ADM0_A3":"CRI","LATITUDE":9.93501242974,"LONGITUDE":-84.0840513527,"name_zh":"聖荷西","name":"Costa Rica"}},
{"type":"Feature","geometry":{"type":"Point","coordinates":[-89.20498707899998,13.711947505000069]},"properties":{"OBJECTID":79,"ADM0NAME":"El Salvador","ADM0_A3":"SLV","LATITUDE":13.7100016469,"LONGITUDE":-89.2030412208,"name_zh":"聖薩爾瓦多","name":"El Salvador"}},
{"type":"Feature","geometry":{"type":"Point","coordinates":[-76.76743371399994,17.977076624000063]},"properties":{"OBJECTID":80,"ADM0NAME":"Jamaica","ADM0_A3":"JAM","LATITUDE":17.9770766238,"LONGITUDE":-76.7674337137,"name_zh":"京斯敦","name":"Jamaica"}},
{"type":"Feature","geometry":{"type":"Point","coordinates":[15.047202455000047,12.115042395000046]},"properties":{"OBJECTID":81,"ADM0NAME":"Chad","ADM0_A3":"TCD","LATITUDE":12.1130965362,"LONGITUDE":15.0491483141,"name_zh":"恩賈梅納","name":"Chad"}},
{"type":"Feature","geometry":{"type":"Point","coordinates":[8.783277546000022,3.750015278000035]},"properties":{"OBJECTID":82,"ADM0NAME":"Equatorial Guinea","ADM0_A3":"GNQ","LATITUDE":3.75001527803,"LONGITUDE":8.78327754582,"name_zh":"馬拉博","name":"Equatorial Guinea"}},
{"type":"Feature","geometry":{"type":"Point","coordinates":[38.93332352600004,15.333339253000076]},"properties":{"OBJECTID":83,"ADM0NAME":"Eritrea","ADM0_A3":"ERI","LATITUDE":15.3333392527,"LONGITUDE":38.9333235258,"name_zh":"阿斯馬拉","name":"Eritrea"}},
{"type":"Feature","geometry":{"type":"Point","coordinates":[15.999994668000056,45.80000673300003]},"properties":{"OBJECTID":84,"ADM0NAME":"Croatia","ADM0_A3":"HRV","LATITUDE":45.8000067333,"LONGITUDE":15.9999946682,"name_zh":"萨格勒布","name":"Croatia"}},
{"type":"Feature","geometry":{"type":"Point","coordinates":[24.728040729000043,59.43387737900008]},"properties":{"OBJECTID":85,"ADM0NAME":"Estonia","ADM0_A3":"EST","LATITUDE":59.4338773795,"LONGITUDE":24.7280407295,"name_zh":"塔林","name":"Estonia"}},
{"type":"Feature","geometry":{"type":"Point","coordinates":[33.783301960000074,-13.983295064999936]},"properties":{"OBJECTID":86,"ADM0NAME":"Malawi","ADM0_A3":"MWI","LATITUDE":-13.9832950655,"LONGITUDE":33.78330196,"name_zh":"利隆圭","name":"Malawi"}},
{"type":"Feature","geometry":{"type":"Point","coordinates":[-90.52891143699998,14.623080521000077]},"properties":{"OBJECTID":87,"ADM0NAME":"Guatemala","ADM0_A3":"GTM","LATITUDE":14.6211346628,"LONGITUDE":-90.5269655779,"name_zh":"瓜地馬拉","name":"Guatemala"}},
{"type":"Feature","geometry":{"type":"Point","coordinates":[9.457965046000027,0.38538861000006364]},"properties":{"OBJECTID":88,"ADM0NAME":"Gabon","ADM0_A3":"GAB","LATITUDE":0.38538860972,"LONGITUDE":9.45796504582,"name_zh":"利伯维尔","name":"Gabon"}},
{"type":"Feature","geometry":{"type":"Point","coordinates":[178.44170731500003,-18.13301593099993]},"properties":{"OBJECTID":89,"ADM0NAME":"Fiji","ADM0_A3":"FJI","LATITUDE":-18.1330159314,"LONGITUDE":178.441707315,"name_zh":"蘇瓦","name":"Fiji"}},
{"type":"Feature","geometry":{"type":"Point","coordinates":[-15.975340414999948,18.086427021000077]},"properties":{"OBJECTID":90,"ADM0NAME":"Mauritania","ADM0_A3":"MRT","LATITUDE":18.0864270212,"LONGITUDE":-15.9753404149,"name_zh":"努瓦克肖特","name":"Mauritania"}},
{"type":"Feature","geometry":{"type":"Point","coordinates":[-8.001984962999927,12.651960526000039]},"properties":{"OBJECTID":91,"ADM0NAME":"Mali","ADM0_A3":"MLI","LATITUDE":12.6500146677,"LONGITUDE":-8.00003910464,"name_zh":"巴馬科","name":"Mali"}},
{"type":"Feature","geometry":{"type":"Point","coordinates":[35.50776235100005,33.87392097600008]},"properties":{"OBJECTID":92,"ADM0NAME":"Lebanon","ADM0_A3":"LBN","LATITUDE":33.871975117,"LONGITUDE":35.50970821,"name_zh":"贝鲁特","name":"Lebanon"}},
{"type":"Feature","geometry":{"type":"Point","coordinates":[44.78884959100003,41.726955847000056]},"properties":{"OBJECTID":93,"ADM0NAME":"Georgia","ADM0_A3":"GEO","LATITUDE":41.7250099885,"LONGITUDE":44.7907954496,"name_zh":"第比利斯","name":"Georgia"}},
{"type":"Feature","geometry":{"type":"Point","coordinates":[71.42777420900006,51.181125304000034]},"properties":{"OBJECTID":94,"ADM0NAME":"Kazakhstan","ADM0_A3":"KAZ","LATITUDE":51.1811253043,"LONGITUDE":71.4277742095,"name_zh":"阿斯塔納","name":"Kazakhstan"}},
{"type":"Feature","geometry":{"type":"Point","coordinates":[102.59998002000003,17.966692728000055]},"properties":{"OBJECTID":95,"ADM0NAME":"Laos","ADM0_A3":"LAO","LATITUDE":17.9666927276,"LONGITUDE":102.59998002,"name_zh":"永珍","name":"Laos"}},
{"type":"Feature","geometry":{"type":"Point","coordinates":[15.282743634000042,-4.257239912999978]},"properties":{"OBJECTID":96,"ADM0NAME":"Congo (Brazzaville)","ADM0_A3":"COG","LATITUDE":-4.25918577181,"LONGITUDE":15.2846894925,"name_zh":"布拉柴维尔","name":"Congo (Brazzaville)"}},
{"type":"Feature","geometry":{"type":"Point","coordinates":[-13.68218088599997,9.533468705000075]},"properties":{"OBJECTID":97,"ADM0NAME":"Guinea","ADM0_A3":"GIN","LATITUDE":9.53152284641,"LONGITUDE":-13.6802350275,"name_zh":"科納克里","name":"Guinea"}},
{"type":"Feature","geometry":{"type":"Point","coordinates":[-5.275502564999954,6.81838096000007]},"properties":{"OBJECTID":98,"ADM0NAME":"Ivory Coast","ADM0_A3":"CIV","LATITUDE":6.81838096,"LONGITUDE":-5.27550256491,"name_zh":"亚穆苏克罗","name":"Ivory Coast"}},
{"type":"Feature","geometry":{"type":"Point","coordinates":[-75.70196115999994,45.41864265500004]},"properties":{"OBJECTID":99,"ADM0NAME":"Canada","ADM0_A3":"CAN","LATITUDE":45.4166967967,"LONGITUDE":-75.7000153012,"name_zh":"渥太華","name":"Canada"}},
{"type":"Feature","geometry":{"type":"Point","coordinates":[20.46604482200007,44.82059130400006]},"properties":{"OBJECTID":100,"ADM0NAME":"Serbia","ADM0_A3":"SRB","LATITUDE":44.8186454458,"LONGITUDE":20.4679906806,"name_zh":"贝尔格莱德","name":"Serbia"}},
{"type":"Feature","geometry":{"type":"Point","coordinates":[114.93328405700004,4.883331115000033]},"properties":{"OBJECTID":101,"ADM0NAME":"Brunei","ADM0_A3":"BRN","LATITUDE":4.88333111462,"LONGITUDE":114.933284057,"name_zh":"斯里巴加湾","name":"Brunei"}},
{"type":"Feature","geometry":{"type":"Point","coordinates":[-65.25951562699998,-19.040970846999983]},"properties":{"OBJECTID":102,"ADM0NAME":"Bolivia","ADM0_A3":"BOL","LATITUDE":-19.0409708467,"LONGITUDE":-65.2595156267,"name_zh":"苏克雷","name":"Bolivia"}},
{"type":"Feature","geometry":{"type":"Point","coordinates":[-88.76707299999998,17.25203350700002]},"properties":{"OBJECTID":103,"ADM0NAME":"Belize","ADM0_A3":"BLZ","LATITUDE":17.2520335072,"LONGITUDE":-88.7670729998,"name_zh":"貝爾墨邦","name":"Belize"}},
{"type":"Feature","geometry":{"type":"Point","coordinates":[18.558288125000047,4.366644306000069]},"properties":{"OBJECTID":104,"ADM0NAME":"Central African Republic","ADM0_A3":"CAF","LATITUDE":4.36664430635,"LONGITUDE":18.5582881253,"name_zh":"班基","name":"Central African Republic"}},
{"type":"Feature","geometry":{"type":"Point","coordinates":[11.514704897000058,3.8686465210000733]},"properties":{"OBJECTID":105,"ADM0NAME":"Cameroon","ADM0_A3":"CMR","LATITUDE":3.86670066214,"LONGITUDE":11.5166507555,"name_zh":"雅温得","name":"Cameroon"}},
{"type":"Feature","geometry":{"type":"Point","coordinates":[19.81888301500004,41.32754070900006]},"properties":{"OBJECTID":106,"ADM0NAME":"Albania","ADM0_A3":"ALB","LATITUDE":41.3275407095,"LONGITUDE":19.8188830146,"name_zh":"地拉那","name":"Albania"}},
{"type":"Feature","geometry":{"type":"Point","coordinates":[44.51160553200003,40.18309659400006]},"properties":{"OBJECTID":107,"ADM0NAME":"Armenia","ADM0_A3":"ARM","LATITUDE":40.1811507355,"LONGITUDE":44.5135513904,"name_zh":"葉里溫","name":"Armenia"}},
{"type":"Feature","geometry":{"type":"Point","coordinates":[49.86027130300005,40.397217891000025]},"properties":{"OBJECTID":108,"ADM0NAME":"Azerbaijan","ADM0_A3":"AZE","LATITUDE":40.3952720327,"LONGITUDE":49.8622171619,"name_zh":"巴库","name":"Azerbaijan"}},
{"type":"Feature","geometry":{"type":"Point","coordinates":[104.91468862100004,11.551975989000027]},"properties":{"OBJECTID":109,"ADM0NAME":"Cambodia","ADM0_A3":"KHM","LATITUDE":11.5500301299,"LONGITUDE":104.91663448,"name_zh":"金边","name":"Cambodia"}},
{"type":"Feature","geometry":{"type":"Point","coordinates":[2.5180447410000397,6.401954423000063]},"properties":{"OBJECTID":110,"ADM0NAME":"Benin","ADM0_A3":"BEN","LATITUDE":6.40000856417,"LONGITUDE":2.51999059918,"name_zh":"科托努","name":"Benin"}},
{"type":"Feature","geometry":{"type":"Point","coordinates":[23.314708152000037,42.68529528400006]},"properties":{"OBJECTID":111,"ADM0NAME":"Bulgaria","ADM0_A3":"BGR","LATITUDE":42.6833494253,"LONGITUDE":23.3166540107,"name_zh":"索菲亞","name":"Bulgaria"}},
{"type":"Feature","geometry":{"type":"Point","coordinates":[27.56468129700005,53.901923295000074]},"properties":{"OBJECTID":112,"ADM0NAME":"Belarus","ADM0_A3":"BLR","LATITUDE":53.8999774364,"LONGITUDE":27.5666271553,"name_zh":"明斯克","name":"Belarus"}},
{"type":"Feature","geometry":{"type":"Point","coordinates":[89.63901403700004,27.47298585900006]},"properties":{"OBJECTID":113,"ADM0NAME":"Bhutan","ADM0_A3":"BTN","LATITUDE":27.4729858592,"LONGITUDE":89.639014037,"name_zh":"廷布","name":"Bhutan"}},
{"type":"Feature","geometry":{"type":"Point","coordinates":[25.911947793000024,-24.646313456999962]},"properties":{"OBJECTID":114,"ADM0NAME":"Botswana","ADM0_A3":"BWA","LATITUDE":-24.6463134574,"LONGITUDE":25.9119477933,"name_zh":"嘉柏隆里","name":"Botswana"}},
{"type":"Feature","geometry":{"type":"Point","coordinates":[149.1290262440001,-35.28302854499998]},"properties":{"OBJECTID":115,"ADM0NAME":"Australia","ADM0_A3":"AUS","LATITUDE":-35.2830285454,"LONGITUDE":149.129026244,"name_zh":"堪培拉","name":"Australia"}},
{"type":"Feature","geometry":{"type":"Point","coordinates":[-1.5266696149999461,12.372261837000053]},"properties":{"OBJECTID":116,"ADM0NAME":"Burkina Faso","ADM0_A3":"BFA","LATITUDE":12.3703159779,"LONGITUDE":-1.5247237563,"name_zh":"瓦加杜古","name":"Burkina Faso"}},
{"type":"Feature","geometry":{"type":"Point","coordinates":[18.38300166700003,43.85002239900007]},"properties":{"OBJECTID":117,"ADM0NAME":"Bosnia and Herzegovina","ADM0_A3":"BIH","LATITUDE":43.850022399,"LONGITUDE":18.383001667,"name_zh":"塞拉耶佛","name":"Bosnia and Herzegovina"}},
{"type":"Feature","geometry":{"type":"Point","coordinates":[96.11667267100006,19.768502885000032]},"properties":{"OBJECTID":118,"ADM0NAME":"Myanmar","ADM0_A3":"MMR","LATITUDE":19.7665570261,"LONGITUDE":96.1186185292,"name_zh":"奈比多","name":"Myanmar"}},
{"type":"Feature","geometry":{"type":"Point","coordinates":[-64.78393741999997,32.29419028600006]},"properties":{"OBJECTID":119,"ADM0NAME":"Bermuda","ADM0_A3":"BMU","LATITUDE":32.2941902863,"LONGITUDE":-64.7839374203,"name_zh":"哈密尔顿","name":"Bermuda"}},
{"type":"Feature","geometry":{"type":"Point","coordinates":[-175.22056447799997,-21.138512356999968]},"properties":{"OBJECTID":120,"ADM0NAME":"Tonga","ADM0_A3":"TON","LATITUDE":-21.1385123567,"LONGITUDE":-175.220564478,"name_zh":"努库阿洛法","name":"Tonga"}},
{"type":"Feature","geometry":{"type":"Point","coordinates":[44.06531001700006,9.560022399000047]},"properties":{"OBJECTID":121,"ADM0NAME":"Somaliland","ADM0_A3":"SOL","LATITUDE":9.56002239882,"LONGITUDE":44.0653100167,"name_zh":"哈尔格萨","name":"Somaliland"}},
{"type":"Feature","geometry":{"type":"Point","coordinates":[55.44998978600006,-4.616631653999946]},"properties":{"OBJECTID":122,"ADM0NAME":"Seychelles","ADM0_A3":"SYC","LATITUDE":-4.61663165397,"LONGITUDE":55.4499897856,"name_zh":"维多利亚","name":"Seychelles"}},
{"type":"Feature","geometry":{"type":"Point","coordinates":[6.733325153000067,0.33340211900002714]},"properties":{"OBJECTID":123,"ADM0NAME":"Sao Tome and Principe","ADM0_A3":"STP","LATITUDE":0.33340211883,"LONGITUDE":6.73332515323,"name_zh":"圣多美","name":"Sao Tome and Principe"}},
{"type":"Feature","geometry":{"type":"Point","coordinates":[-171.73864160899998,-13.84154504199995]},"properties":{"OBJECTID":124,"ADM0NAME":"Samoa","ADM0_A3":"WSM","LATITUDE":-13.8415450424,"LONGITUDE":-171.738641609,"name_zh":"阿皮亚","name":"Samoa"}},
{"type":"Feature","geometry":{"type":"Point","coordinates":[14.51471065100003,35.89973248200005]},"properties":{"OBJECTID":125,"ADM0NAME":"Malta","ADM0_A3":"MLT","LATITUDE":35.8997324819,"LONGITUDE":14.5147106513,"name_zh":"瓦莱塔","name":"Malta"}},
{"type":"Feature","geometry":{"type":"Point","coordinates":[73.49994746800007,4.166708190000065]},"properties":{"OBJECTID":126,"ADM0NAME":"Maldives","ADM0_A3":"MDV","LATITUDE":4.16670818981,"LONGITUDE":73.499947468,"name_zh":"馬累","name":"Maldives"}},
{"type":"Feature","geometry":{"type":"Point","coordinates":[35.206625935000034,31.778407816000026]},"properties":{"OBJECTID":127,"ADM0NAME":"Israel","ADM0_A3":"ISR","LATITUDE":31.7784078156,"LONGITUDE":35.2066259346,"name_zh":"耶路撒冷","name":"Israel"}},
{"type":"Feature","geometry":{"type":"Point","coordinates":[-23.51668888499995,14.916698017000044]},"properties":{"OBJECTID":128,"ADM0NAME":"Cape Verde","ADM0_A3":"CPV","LATITUDE":14.9166980173,"LONGITUDE":-23.516688885,"name_zh":"培亞","name":"Cape Verde"}},
{"type":"Feature","geometry":{"type":"Point","coordinates":[-77.35004378399998,25.083390115000043]},"properties":{"OBJECTID":129,"ADM0NAME":"The Bahamas","ADM0_A3":"BHS","LATITUDE":25.0833901154,"LONGITUDE":-77.3500437843,"name_zh":"拿骚","name":"The Bahamas"}},
{"type":"Feature","geometry":{"type":"Point","coordinates":[33.36663488600004,35.16667645200005]},"properties":{"OBJECTID":130,"ADM0NAME":"Cyprus","ADM0_A3":"CYP","LATITUDE":35.1666764517,"LONGITUDE":33.3666348864,"name_zh":"尼科西亚","name":"Cyprus"}},
{"type":"Feature","geometry":{"type":"Point","coordinates":[105.84806834100004,21.03527310800007]},"properties":{"OBJECTID":131,"ADM0NAME":"Vietnam","ADM0_A3":"VNM","LATITUDE":21.0333272491,"LONGITUDE":105.8500142,"name_zh":"河內","name":"Viet Nam"}},
{"type":"Feature","geometry":{"type":"Point","coordinates":[32.862445782000066,39.92918444400004]},"properties":{"OBJECTID":132,"ADM0NAME":"Turkey","ADM0_A3":"TUR","LATITUDE":39.9272385855,"LONGITUDE":32.864391641,"name_zh":"安卡拉","name":"Turkey"}},
{"type":"Feature","geometry":{"type":"Point","coordinates":[19.081374819000075,47.50195218500005]},"properties":{"OBJECTID":133,"ADM0NAME":"Hungary","ADM0_A3":"HUN","LATITUDE":47.5000063264,"LONGITUDE":19.0833206774,"name_zh":"布达佩斯","name":"Hungary"}},
{"type":"Feature","geometry":{"type":"Point","coordinates":[44.20464752400005,15.356679154000062]},"properties":{"OBJECTID":134,"ADM0NAME":"Yemen","ADM0_A3":"YEM","LATITUDE":15.3547332957,"LONGITUDE":44.2065933826,"name_zh":"萨那","name":"Yemen"}},
{"type":"Feature","geometry":{"type":"Point","coordinates":[26.098000795000075,44.435317663000035]},"properties":{"OBJECTID":135,"ADM0NAME":"Romania","ADM0_A3":"ROU","LATITUDE":44.4333718049,"LONGITUDE":26.099946654,"name_zh":"布加勒斯特","name":"Romania"}},
{"type":"Feature","geometry":{"type":"Point","coordinates":[36.29805003000007,33.50197985400007]},"properties":{"OBJECTID":136,"ADM0NAME":"Syria","ADM0_A3":"SYR","LATITUDE":33.5000339956,"LONGITUDE":36.299995889,"name_zh":"大马士革","name":"Syria"}},
{"type":"Feature","geometry":{"type":"Point","coordinates":[-9.146812163999925,38.72466873600007]},"properties":{"OBJECTID":137,"ADM0NAME":"Portugal","ADM0_A3":"PRT","LATITUDE":38.7227228779,"LONGITUDE":-9.14486630549,"name_zh":"里斯本","name":"Portugal"}},
{"type":"Feature","geometry":{"type":"Point","coordinates":[32.53223338000004,15.59002408400005]},"properties":{"OBJECTID":138,"ADM0NAME":"Sudan","ADM0_A3":"SDN","LATITUDE":15.5880782257,"LONGITUDE":32.5341792386,"name_zh":"喀土穆","name":"Sudan"}},
{"type":"Feature","geometry":{"type":"Point","coordinates":[10.748033347000046,59.91863614500005]},"properties":{"OBJECTID":139,"ADM0NAME":"Norway","ADM0_A3":"NOR","LATITUDE":59.9166902864,"LONGITUDE":10.749979206,"name_zh":"奥斯陆","name":"Norway"}},
{"type":"Feature","geometry":{"type":"Point","coordinates":[20.998053692000042,52.251946488000044]},"properties":{"OBJECTID":140,"ADM0NAME":"Poland","ADM0_A3":"POL","LATITUDE":52.2500006298,"LONGITUDE":20.9999995511,"name_zh":"华沙","name":"Poland"}},
{"type":"Feature","geometry":{"type":"Point","coordinates":[125.75274485500006,39.02138455800008]},"properties":{"OBJECTID":141,"ADM0NAME":"North Korea","ADM0_A3":"PRK","LATITUDE":39.0194386994,"LONGITUDE":125.754690714,"name_zh":"平壤","name":"North Korea"}},
{"type":"Feature","geometry":{"type":"Point","coordinates":[39.26639597800005,-6.798066735999953]},"properties":{"OBJECTID":142,"ADM0NAME":"Tanzania","ADM0_A3":"TZA","LATITUDE":-6.80001259474,"LONGITUDE":39.2683418363,"name_zh":"达累斯萨拉姆","name":"Tanzania"}},
{"type":"Feature","geometry":{"type":"Point","coordinates":[-6.250851539999928,53.33500699500007]},"properties":{"OBJECTID":143,"ADM0NAME":"Ireland","ADM0_A3":"IRL","LATITUDE":53.333061136,"LONGITUDE":-6.24890568178,"name_zh":"都柏林","name":"Ireland"}},
{"type":"Feature","geometry":{"type":"Point","coordinates":[-10.799660436999943,6.314581647000068]},"properties":{"OBJECTID":144,"ADM0NAME":"Liberia","ADM0_A3":"LBR","LATITUDE":6.31055665987,"LONGITUDE":-10.8047516291,"name_zh":"蒙羅維亞","name":"Liberia"}},
{"type":"Feature","geometry":{"type":"Point","coordinates":[101.69803741700008,3.1686117310000554]},"properties":{"OBJECTID":145,"ADM0NAME":"Malaysia","ADM0_A3":"MYS","LATITUDE":3.1666658721,"LONGITUDE":101.699983275,"name_zh":"吉隆坡","name":"Malaysia"}},
{"type":"Feature","geometry":{"type":"Point","coordinates":[-82.36612802999997,23.133904700000073]},"properties":{"OBJECTID":146,"ADM0NAME":"Cuba","ADM0_A3":"CUB","LATITUDE":23.1319588409,"LONGITUDE":-82.3641821713,"name_zh":"哈瓦那","name":"Cuba"}},
{"type":"Feature","geometry":{"type":"Point","coordinates":[14.464033917000052,50.08528287300004]},"properties":{"OBJECTID":147,"ADM0NAME":"Czech Republic","ADM0_A3":"CZE","LATITUDE":50.0833370149,"LONGITUDE":14.4659797757,"name_zh":"布拉格","name":"Czech Republic"}},
{"type":"Feature","geometry":{"type":"Point","coordinates":[47.976355288000036,29.37166348900007]},"properties":{"OBJECTID":148,"ADM0NAME":"Kuwait","ADM0_A3":"KWT","LATITUDE":29.36971763,"LONGITUDE":47.9783011462,"name_zh":"科威特","name":"Kuwait"}},
{"type":"Feature","geometry":{"type":"Point","coordinates":[-69.90203094299994,18.472018713000068]},"properties":{"OBJECTID":149,"ADM0NAME":"Dominican Republic","ADM0_A3":"DOM","LATITUDE":18.4700728546,"LONGITUDE":-69.9000850847,"name_zh":"聖多明哥","name":"Dominican Republic"}},
{"type":"Feature","geometry":{"type":"Point","coordinates":[-0.21866159899997228,5.551980464000053]},"properties":{"OBJECTID":150,"ADM0NAME":"Ghana","ADM0_A3":"GHA","LATITUDE":5.55003460583,"LONGITUDE":-0.21671574035,"name_zh":"阿克拉","name":"Ghana"}},
{"type":"Feature","geometry":{"type":"Point","coordinates":[13.180011758000035,32.89250001900007]},"properties":{"OBJECTID":151,"ADM0NAME":"Libya","ADM0_A3":"LBY","LATITUDE":32.8925000194,"LONGITUDE":13.1800117581,"name_zh":"的黎波里","name":"Libya"}},
{"type":"Feature","geometry":{"type":"Point","coordinates":[24.932180483000025,60.17750923300008]},"properties":{"OBJECTID":152,"ADM0NAME":"Finland","ADM0_A3":"FIN","LATITUDE":60.175563374,"LONGITUDE":24.9341263415,"name_zh":"赫尔辛基","name":"Finland"}},
{"type":"Feature","geometry":{"type":"Point","coordinates":[12.561539889000073,55.68051004900008]},"properties":{"OBJECTID":153,"ADM0NAME":"Denmark","ADM0_A3":"DNK","LATITUDE":55.6785641904,"LONGITUDE":12.5634857473,"name_zh":"哥本哈根","name":"Denmark"}},
{"type":"Feature","geometry":{"type":"Point","coordinates":[-47.917998146999935,-15.781394372999955]},"properties":{"OBJECTID":154,"ADM0NAME":"Brazil","ADM0_A3":"BRA","LATITUDE":-15.7833402315,"LONGITUDE":-47.9160522884,"name_zh":"巴西利亚","name":"Brazil"}},
{"type":"Feature","geometry":{"type":"Point","coordinates":[4.331370750000076,50.83526293500006]},"properties":{"OBJECTID":155,"ADM0NAME":"Belgium","ADM0_A3":"BEL","LATITUDE":50.8333170767,"LONGITUDE":4.3333166083,"name_zh":"布鲁塞尔","name":"Belgium"}},
{"type":"Feature","geometry":{"type":"Point","coordinates":[90.40663360800005,23.725005570000064]},"properties":{"OBJECTID":156,"ADM0NAME":"Bangladesh","ADM0_A3":"BGD","LATITUDE":23.7230597117,"LONGITUDE":90.4085794667,"name_zh":"达卡","name":"Bangladesh"}},
{"type":"Feature","geometry":{"type":"Point","coordinates":[13.232481183000061,-8.836340254999925]},"properties":{"OBJECTID":157,"ADM0NAME":"Angola","ADM0_A3":"AGO","LATITUDE":-8.83828611363,"LONGITUDE":13.2344270413,"name_zh":"罗安达","name":"Angola"}},
{"type":"Feature","geometry":{"type":"Point","coordinates":[3.0486066710000728,36.76501065700006]},"properties":{"OBJECTID":158,"ADM0NAME":"Algeria","ADM0_A3":"DZA","LATITUDE":36.763064798,"LONGITUDE":3.05055252952,"name_zh":"阿爾及爾","name":"Algeria"}},
{"type":"Feature","geometry":{"type":"Point","coordinates":[-66.91898305099994,10.502944413000023]},"properties":{"OBJECTID":159,"ADM0NAME":"Venezuela","ADM0_A3":"VEN","LATITUDE":10.5009985544,"LONGITUDE":-66.9170371924,"name_zh":"加拉加斯","name":"Venezuela"}},
{"type":"Feature","geometry":{"type":"Point","coordinates":[30.514682110000024,50.435313188000066]},"properties":{"OBJECTID":160,"ADM0NAME":"Ukraine","ADM0_A3":"UKR","LATITUDE":50.433367329,"LONGITUDE":30.5166279691,"name_zh":"基輔","name":"Ukraine"}},
{"type":"Feature","geometry":{"type":"Point","coordinates":[69.29298696100005,41.31364774200006]},"properties":{"OBJECTID":161,"ADM0NAME":"Uzbekistan","ADM0_A3":"UZB","LATITUDE":41.311701883,"LONGITUDE":69.2949328195,"name_zh":"塔什干","name":"Uzbekistan"}},
{"type":"Feature","geometry":{"type":"Point","coordinates":[-3.685297544999969,40.401972123000064]},"properties":{"OBJECTID":162,"ADM0NAME":"Spain","ADM0_A3":"ESP","LATITUDE":40.4000262645,"LONGITUDE":-3.683351686,"name_zh":"马德里","name":"Spain"}},
{"type":"Feature","geometry":{"type":"Point","coordinates":[18.095388874000037,59.35270581300006]},"properties":{"OBJECTID":163,"ADM0NAME":"Sweden","ADM0_A3":"SWE","LATITUDE":59.3507599543,"LONGITUDE":18.0973347328,"name_zh":"斯德哥尔摩","name":"Sweden"}},
{"type":"Feature","geometry":{"type":"Point","coordinates":[100.51469879400008,13.75194506400004]},"properties":{"OBJECTID":164,"ADM0NAME":"Thailand","ADM0_A3":"THA","LATITUDE":13.7499992055,"LONGITUDE":100.516644652,"name_zh":"曼谷","name":"Thailand"}},
{"type":"Feature","geometry":{"type":"Point","coordinates":[-77.05200795299999,-12.046066817999929]},"properties":{"OBJECTID":165,"ADM0NAME":"Peru","ADM0_A3":"PER","LATITUDE":-12.0480126761,"LONGITUDE":-77.0500620948,"name_zh":"利馬","name":"Peru"}},
{"type":"Feature","geometry":{"type":"Point","coordinates":[-17.47507598699997,14.717777584000032]},"properties":{"OBJECTID":166,"ADM0NAME":"Senegal","ADM0_A3":"SEN","LATITUDE":14.715831725,"LONGITUDE":-17.4731301284,"name_zh":"達喀爾","name":"Senegal"}},
{"type":"Feature","geometry":{"type":"Point","coordinates":[4.914694317000055,52.351914547000035]},"properties":{"OBJECTID":167,"ADM0NAME":"Netherlands","ADM0_A3":"NLD","LATITUDE":52.3499686881,"LONGITUDE":4.91664017601,"name_zh":"阿姆斯特丹","name":"Netherlands"}},
{"type":"Feature","geometry":{"type":"Point","coordinates":[126.99778513800004,37.568294958000024]},"properties":{"OBJECTID":168,"ADM0NAME":"South Korea","ADM0_A3":"KOR","LATITUDE":37.5663490998,"LONGITUDE":126.999730997,"name_zh":"首爾","name":"Republic of Korea"}},
{"type":"Feature","geometry":{"type":"Point","coordinates":[120.9802713040001,14.606104813000059]},"properties":{"OBJECTID":169,"ADM0NAME":"Philippines","ADM0_A3":"PHL","LATITUDE":14.6041589548,"LONGITUDE":120.982217162,"name_zh":"马尼拉","name":"Philippines"}},
{"type":"Feature","geometry":{"type":"Point","coordinates":[13.399602765000054,52.52376452200008]},"properties":{"OBJECTID":170,"ADM0NAME":"Germany","ADM0_A3":"DEU","LATITUDE":52.5218186636,"LONGITUDE":13.4015486233,"name_zh":"柏林","name":"Germany"}},
{"type":"Feature","geometry":{"type":"Point","coordinates":[15.313026023000077,-4.327778242999955]},"properties":{"OBJECTID":171,"ADM0NAME":"Congo (Kinshasa)","ADM0_A3":"COD","LATITUDE":-4.32972410189,"LONGITUDE":15.3149718818,"name_zh":"金夏沙","name":"Congo (Kinshasa)"}},
{"type":"Feature","geometry":{"type":"Point","coordinates":[77.19998002000005,28.60002300900004]},"properties":{"OBJECTID":172,"ADM0NAME":"India","ADM0_A3":"IND","LATITUDE":28.6000230092,"LONGITUDE":77.1999800201,"name_zh":"新德里","name":"India"}},
{"type":"Feature","geometry":{"type":"Point","coordinates":[23.73137522600007,37.98527209100007]},"properties":{"OBJECTID":173,"ADM0NAME":"Greece","ADM0_A3":"GRC","LATITUDE":37.9833262319,"LONGITUDE":23.7333210843,"name_zh":"雅典","name":"Greece"}},
{"type":"Feature","geometry":{"type":"Point","coordinates":[44.391922915000066,33.340594356000054]},"properties":{"OBJECTID":174,"ADM0NAME":"Iraq","ADM0_A3":"IRQ","LATITUDE":33.3386484975,"LONGITUDE":44.3938687732,"name_zh":"巴格达","name":"Iraq"}},
{"type":"Feature","geometry":{"type":"Point","coordinates":[38.69805857500006,9.035256221000054]},"properties":{"OBJECTID":175,"ADM0NAME":"Ethiopia","ADM0_A3":"ETH","LATITUDE":9.03331036268,"LONGITUDE":38.700004434,"name_zh":"亚的斯亚贝巴","name":"Ethiopia"}},
{"type":"Feature","geometry":{"type":"Point","coordinates":[51.42239817500007,35.67388862700005]},"properties":{"OBJECTID":176,"ADM0NAME":"Iran","ADM0_A3":"IRN","LATITUDE":35.6719427684,"LONGITUDE":51.4243440336,"name_zh":"德黑兰","name":"Iran (Islamic Republic of)"}},
{"type":"Feature","geometry":{"type":"Point","coordinates":[-58.39947723199998,-34.600555749999955]},"properties":{"OBJECTID":177,"ADM0NAME":"Argentina","ADM0_A3":"ARG","LATITUDE":-34.6025016085,"LONGITUDE":-58.3975313737,"name_zh":"布宜諾斯艾利斯","name":"Argentina"}},
{"type":"Feature","geometry":{"type":"Point","coordinates":[69.18131419100007,34.51863614500007]},"properties":{"OBJECTID":178,"ADM0NAME":"Afghanistan","ADM0_A3":"AFG","LATITUDE":34.5166902863,"LONGITUDE":69.1832600493,"name_zh":"喀布尔","name":"Afghanistan"}},
{"type":"Feature","geometry":{"type":"Point","coordinates":[16.364693097000043,48.20196113700007]},"properties":{"OBJECTID":179,"ADM0NAME":"Austria","ADM0_A3":"AUT","LATITUDE":48.2000152782,"LONGITUDE":16.3666389554,"name_zh":"維也納","name":"Austria"}},
{"type":"Feature","geometry":{"type":"Point","coordinates":[-77.01136443899998,38.90149523500003]},"properties":{"OBJECTID":181,"ADM0NAME":"United States of America","ADM0_A3":"USA","LATITUDE":38.8995493765,"LONGITUDE":-77.0094185808,"name_zh":"華盛頓哥倫比亞特區","name":"United States of America"}},
{"type":"Feature","geometry":{"type":"Point","coordinates":[-0.11866770199992516,51.50194058800008]},"properties":{"OBJECTID":182,"ADM0NAME":"United Kingdom","ADM0_A3":"GBR","LATITUDE":51.4999947297,"LONGITUDE":-0.11672184386,"name_zh":"倫敦","name":"The United Kingdom"}},
{"type":"Feature","geometry":{"type":"Point","coordinates":[46.77079579900004,24.642779008000048]},"properties":{"OBJECTID":183,"ADM0NAME":"Saudi Arabia","ADM0_A3":"SAU","LATITUDE":24.6408331492,"LONGITUDE":46.7727416573,"name_zh":"利雅德","name":"Saudi Arabia"}},
{"type":"Feature","geometry":{"type":"Point","coordinates":[37.61357696700003,55.754109981000056]},"properties":{"OBJECTID":184,"ADM0NAME":"Russia","ADM0_A3":"RUS","LATITUDE":55.7521641226,"LONGITUDE":37.6155228259,"name_zh":"莫斯科","name":"Russian Federation"}},
{"type":"Feature","geometry":{"type":"Point","coordinates":[-99.13293405999997,19.44438830100006]},"properties":{"OBJECTID":185,"ADM0NAME":"Mexico","ADM0_A3":"MEX","LATITUDE":19.4424424428,"LONGITUDE":-99.1309882017,"name_zh":"墨西哥城","name":"Mexico"}},
{"type":"Feature","geometry":{"type":"Point","coordinates":[12.481312563000074,41.897901485000034]},"properties":{"OBJECTID":186,"ADM0NAME":"Italy","ADM0_A3":"ITA","LATITUDE":41.8959556265,"LONGITUDE":12.4832584215,"name_zh":"罗马","name":"Italy"}},
{"type":"Feature","geometry":{"type":"Point","coordinates":[116.38633982600004,39.930838090000066]},"properties":{"OBJECTID":187,"ADM0NAME":"China","ADM0_A3":"CHN","LATITUDE":39.9288922313,"LONGITUDE":116.388285684,"name_zh":"北京","name":"China"}},
{"type":"Feature","geometry":{"type":"Point","coordinates":[36.814711000000045,-1.2814008829999466]},"properties":{"OBJECTID":188,"ADM0NAME":"Kenya","ADM0_A3":"KEN","LATITUDE":-1.28334674185,"LONGITUDE":36.8166568591,"name_zh":"奈洛比","name":"Kenya"}},
{"type":"Feature","geometry":{"type":"Point","coordinates":[106.82749176200008,-6.17247184699994]},"properties":{"OBJECTID":189,"ADM0NAME":"Indonesia","ADM0_A3":"IDN","LATITUDE":-6.17441770541,"LONGITUDE":106.829437621,"name_zh":"雅加达","name":"Indonesia"}},
{"type":"Feature","geometry":{"type":"Point","coordinates":[-74.08528981399996,4.598369421000029]},"properties":{"OBJECTID":190,"ADM0NAME":"Colombia","ADM0_A3":"COL","LATITUDE":4.59642356253,"LONGITUDE":-74.0833439552,"name_zh":"波哥大","name":"Colombia"}},
{"type":"Feature","geometry":{"type":"Point","coordinates":[31.24802236100004,30.051906205000023]},"properties":{"OBJECTID":191,"ADM0NAME":"Egypt","ADM0_A3":"EGY","LATITUDE":30.0499603465,"LONGITUDE":31.2499682197,"name_zh":"開羅","name":"Egypt"}},
{"type":"Feature","geometry":{"type":"Point","coordinates":[139.7494615710001,35.68696276400004]},"properties":{"OBJECTID":192,"ADM0NAME":"Japan","ADM0_A3":"JPN","LATITUDE":35.6850169058,"LONGITUDE":139.751407429,"name_zh":"東京都","name":"Japan"}},
{"type":"Feature","geometry":{"type":"Point","coordinates":[2.331389467000065,48.868638790000034]},"properties":{"OBJECTID":193,"ADM0NAME":"France","ADM0_A3":"FRA","LATITUDE":48.8666929312,"LONGITUDE":2.33333532574,"name_zh":"巴黎","name":"France"}},
{"type":"Feature","geometry":{"type":"Point","coordinates":[-70.66898671299998,-33.44806795699998]},"properties":{"OBJECTID":194,"ADM0NAME":"Chile","ADM0_A3":"CHL","LATITUDE":-33.4500138155,"LONGITUDE":-70.6670408546,"name_zh":"圣地亚哥－德智利","name":"Chile"}},
{"type":"Feature","geometry":{"type":"Point","coordinates":[103.85387481900005,1.2949793250000425]},"properties":{"OBJECTID":195,"ADM0NAME":"Singapore","ADM0_A3":"SGP","LATITUDE":1.29303346649,"LONGITUDE":103.855820678,"name_zh":"新加坡","name":"Singapore"}},
{"type":"Feature","geometry":{"type":"Point","coordinates":[174.78326585900004,-41.29998785399994]},"properties":{"OBJECTID":196,"ADM0NAME":"New Zealand","ADM0_A3":"NZL","LATITUDE":-41.2999878537,"LONGITUDE":174.783265859,"name_zh":"惠灵顿","name":"New Zealand"}},
{"type":"Feature","geometry":{"type":"Point","coordinates":[35.206625935000034,31.778407816000026]},"properties":{"OBJECTID":197,"ADM0NAME":"Palestine","ADM0_A3":"PSE","LATITUDE":31.7784078156,"LONGITUDE":35.2066259346,"name_zh":"耶路撒冷","name":"Palestine"}}
]}